[{"OBJECT_NAME":"GLOBAL-2","OBJECT_ID":"2018-099BG","EPOCH":"2026-03-09T16:47:21.463008","MEAN_MOTION":15.08046936,"ECCENTRICITY":0.00074537,"INCLINATION":97.3697,"RA_OF_ASC_NODE":109.328,"ARG_OF_PERICENTER":127.1924,"MEAN_ANOMALY":232.9986,"EPHEMERIS_TYPE":0,"CLASSIFICATION_TYPE":"U","NORAD_CAT_ID":43812,"ELEMENT_SET_NO":999,"REV_AT_EPOCH":39691,"BSTAR":0.0002614533,"MEAN_MOTION_DOT":3.97e-5,"MEAN_MOTION_DDOT":0},{"OBJECT_NAME":"STARLINK-4729","OBJECT_ID":"2022-111AH","EPOCH":"2026-03-09T17:13:08.629536","MEAN_MOTION":15.08837677,"ECCENTRICITY":0.0001326,"INCLINATION":53.2158,"RA_OF_ASC_NODE":258.779,"ARG_OF_PERICENTER":89.1228,"MEAN_ANOMALY":270.9916,"EPHEMERIS_TYPE":0,"CLASSIFICATION_TYPE":"U","NORAD_CAT_ID":53804,"ELEMENT_SET_NO":999,"REV_AT_EPOCH":19389,"BSTAR":1.5779674e-5,"MEAN_MOTION_DOT":-3.7e-7,"MEAN_MOTION_DDOT":0}]
